ALOS (DAICHI)           
1 28931U 06002A   25351.73419158  .00001110  00000+0  19545-3 0  9994
2 28931  98.1098 303.1864 0001361 113.5739 246.5610 14.69501788 61443
H-2A R/B                
1 28932U 06002B   26003.31991897  .00016840  00000+0  86923-3 0  9999
2 28932  98.2331 144.8410 0054781 103.6240 257.1099 15.15081904 84532
RESURS-DK 1             
1 29228U 06021A   26003.19573132  .00005216  00000+0  30634-3 0  9996
2 29228  69.9345  46.3824 0006957 241.0913 118.9555 15.12311152 77623
CZ-4B R/B               
1 29507U 06046C   26003.08901357  .00008527  00000+0  43893-3 0  9994
2 29507  97.5702  48.1696 0034899 133.1710 227.2449 15.16128746 50105
CZ-2C R/B               
1 31114U 07010B   26003.27713373  .00000317  00000+0  16427-3 0  9995
2 31114  98.3974 119.8442 0059858 123.9265 236.7624 14.20220563970432
COSMO-SKYMED 1          
1 31598U 07023A   26003.32770355  .00007365  00000+0  66223-3 0  9993
2 31598  97.8826 193.8708 0001333  89.2767 270.8606 14.95961562  5139
COSMOS 2428             
1 31792U 07029A   26003.26084171  .00000348  00000+0  21263-3 0  9991
2 31792  70.9380 340.6936 0004919 353.5407   6.5650 14.12901325954853
SL-16 R/B               
1 31793U 07029B   26003.31671911  .00000166  00000+0  11068-3 0  9992
2 31793  70.9774 309.8009 0002095 270.9200 201.1293 14.14825195956125
KORONAS-FOTON           
1 33504U 09003A   26002.98257130  .00015795  00000+0  37277-3 0  9997
2 33504  82.4308 344.0854 0012589  42.9101 317.3125 15.41658690935613
CZ-2C R/B               
1 37731U 11030B   26003.29693632  .00002481  00000+0  31991-3 0  9997
2 37731  97.8439 321.9304 0052116 201.7058 296.6394 14.80980504780411
H-2A R/B                
1 38341U 12025E   26003.13136602  .00004591  00000+0  42180-3 0  9998
2 38341  98.4627 325.0158 0045103 165.4867 194.7658 14.94607254738427
SHIJIAN-16 (SJ-16)      
1 39358U 13057A   26003.26055304  .00004364  00000+0  43086-3 0  9990
2 39358  74.9741 308.9310 0017963 269.9817  89.9313 14.92085912661742
